H1 CPF 01  gfz 2021 05 27 00  6471 tandemx   
H2 1003001  6202 36605    2021 05 27 00 59 42 2021 06 01 00 00 42   120 1 1  0 0 0
H9
10 0 59365  55422.000000  0    -858020.674    450502.934  -6826913.083
10 0 59365  55542.000000  0    -144983.828   1028760.436  -6816633.358
10 0 59365  55662.000000  0     580419.747   1576620.740  -6687492.596
10 0 59365  55782.000000  0    1305011.255   2084489.296  -6441709.054
10 0 59365  55902.000000  0    2015453.617   2543682.485  -6083511.692
10 0 59365  56022.000000  0    2698492.443   2946575.336  -5619075.191
10 0 59365  56142.000000  0    3341200.162   3286728.500  -5056422.779
10 0 59365  56262.000000  0    3931219.771   3558994.122  -4405300.157
10 0 59365  56382.000000  0    4457005.455   3759598.248  -3677017.769
10 0 59365  56502.000000  0    4908054.067   3886196.746  -2884262.843
10 0 59365  56622.000000  0    5275120.720   3937903.259  -2040883.609
10 0 59365  56742.000000  0    5550414.875   3915288.969  -1161649.631
10 0 59365  56862.000000  0    5727771.242   3820352.201   -261991.184
10 0 59365  56982.000000  0    5802790.802   3656459.191    642275.913
10 0 59365  57102.000000  0    5772948.456   3428256.374   1535235.766
10 0 59365  57222.000000  0    5637662.539   3141555.901   2401161.406
10 0 59365  57342.000000  0    5398325.179   2803198.547   3224800.517
10 0 59365  57462.000000  0    5058292.238   2420896.356   3991652.434
10 0 59365  57582.000000  0    4622831.980   2003058.826   4688228.501
10 0 59365  57702.000000  0    4099037.980   1558608.888   5302289.411
10 0 59365  57822.000000  0    3495706.883   1096792.818   5823061.805
10 0 59365  57942.000000  0    2823180.303    626986.793   6241423.316
10 0 59365  58062.000000  0    2093160.822    158506.910   6550054.506
10 0 59365  58182.000000  0    1318505.235   -299573.833   6743561.247
10 0 59365  58302.000000  0     512995.401   -738600.576   6818565.348
10 0 59365  58422.000000  0    -308908.916  -1150499.693   6773759.130
10 0 59365  58542.000000  0   -1132329.443  -1527926.760   6609926.115
10 0 59365  58662.000000  0   -1942237.824  -1864397.667   6329926.833
10 0 59365  58782.000000  0   -2723727.619  -2154399.273   5938651.489
10 0 59365  58902.000000  0   -3462288.652  -2393480.581   5442942.788
10 0 59365  59022.000000  0   -4144081.732  -2578323.428   4851482.858
10 0 59365  59142.000000  0   -4756203.207  -2706789.058   4174645.295
10 0 59365  59262.000000  0   -5286935.449  -2777939.492   3424316.542
10 0 59365  59382.000000  0   -5725978.247  -2792033.762   2613689.704
10 0 59365  59502.000000  0   -6064657.235  -2750499.890   1757032.840
10 0 59365  59622.000000  0   -6296103.495  -2655883.001    869433.453
10 0 59365  59742.000000  0   -6415397.084  -2511767.933    -33474.835
10 0 59365  59862.000000  0   -6419672.997  -2322680.497   -935795.479
10 0 59365  59982.000000  0   -6308185.437  -2093968.998  -1821659.116
10 0 59365  60102.000000  0   -6082327.522  -1831669.693  -2675510.898
10 0 59365  60222.000000  0   -5745608.763  -1542359.856  -3482389.020
10 0 59365  60342.000000  0   -5303590.977  -1233002.318  -4228189.440
10 0 59365  60462.000000  0   -4763785.029   -910785.540  -4899911.381
10 0 59365  60582.000000  0   -4135511.296   -582962.621  -5485879.674
10 0 59365  60702.000000  0   -3429727.166   -256693.657  -5975939.453
10 0 59365  60822.000000  0   -2658827.397     61105.388  -6361620.903
10 0 59365  60942.000000  0   -1836422.015    363903.761  -6636273.607
10 0 59365  61062.000000  0    -977094.868    645684.206  -6795170.104
10 0 59365  61182.000000  0     -96148.240    901058.076  -6835577.922
10 0 59365  61302.000000  0     790662.862   1125364.971  -6756800.411
10 0 59365  61422.000000  0    1667404.790   1314754.753  -6560189.919
10 0 59365  61542.000000  0    2518246.160   1466253.129  -6249127.965
10 0 59365  61662.000000  0    3327738.927   1577808.088  -5828972.916
10 0 59365  61782.000000  0    4081095.136   1648316.372  -5306975.955
10 0 59365  61902.000000  0    4764456.855   1677630.579  -4692168.122
10 0 59365  62022.000000  0    5365155.977   1666546.509  -3995215.349
10 0 59365  62142.000000  0    5871956.120   1616769.994  -3228242.729
10 0 59365  62262.000000  0    6275272.508   1530863.884  -2404631.634
10 0 59365  62382.000000  0    6567365.866   1412176.515  -1538790.522
10 0 59365  62502.000000  0    6742502.857   1264752.388   -645902.213
10 0 59365  62622.000000  0    6797078.645   1093226.491    258346.599
10 0 59365  62742.000000  0    6729696.525    902706.060   1158047.470
10 0 59365  62862.000000  0    6541206.158    698642.104   2037357.331
10 0 59365  62982.000000  0    6234695.569    486692.840   2880787.858
10 0 59365  63102.000000  0    5815436.739    272583.895   3673486.031
10 0 59365  63222.000000  0    5290787.792     61968.345   4401502.273
10 0 59365  63342.000000  0    4670054.825   -139708.132   5052038.016
10 0 59365  63462.000000  0    3964317.187   -327336.748   5613672.362
10 0 59365  63582.000000  0    3186218.566   -496264.629   6076559.166
10 0 59365  63702.000000  0    2349732.625   -642400.266   6432594.444
10 0 59365  63822.000000  0    1469906.770   -762305.087   6675552.547
10 0 59365  63942.000000  0     562587.417   -853268.939   6801190.412
10 0 59365  64062.000000  0    -355867.904   -913367.775   6807316.182
10 0 59365  64182.000000  0   -1268885.017   -941503.041   6693823.909
10 0 59365  64302.000000  0   -2159970.897   -937421.790   6462694.666
10 0 59365  64422.000000  0   -3013009.847   -901716.938   6117963.873
10 0 59365  64542.000000  0   -3812555.178   -835807.984   5665656.895
10 0 59365  64662.000000  0   -4544113.063   -741903.261   5113690.596
10 0 59365  64782.000000  0   -5194412.032   -622943.814   4471740.533
10 0 59365  64902.000000  0   -5751651.792   -482529.565   3751075.317
10 0 59365  65022.000000  0   -6205725.901   -324829.394   2964361.123
10 0 59365  65142.000000  0   -6548414.855   -154476.964   2125440.583
10 0 59365  65262.000000  0   -6773545.560     23545.857   1249086.658
10 0 59365  65382.000000  0   -6877110.385    204034.050    350736.219
10 0 59365  65502.000000  0   -6857342.950    381690.465   -553790.185
10 0 59365  65622.000000  0   -6714748.168    551259.810  -1448576.334
10 0 59365  65742.000000  0   -6452085.819    707661.337  -2317898.264
10 0 59365  65862.000000  0   -6074311.767    846117.260  -3146506.787
10 0 59365  65982.000000  0   -5588474.170    962274.128  -3919901.677
10 0 59365  66102.000000  0   -5003568.007   1052313.357  -4624585.701
10 0 59365  66222.000000  0   -4330355.541   1113048.544  -5248296.595
10 0 59365  66342.000000  0   -3581156.542   1142007.493  -5780212.861
10 0 59365  66462.000000  0   -2769614.277   1137497.186  -6211131.472
10 0 59365  66582.000000  0   -1910442.175   1098650.508  -6533615.469
10 0 59365  66702.000000  0   -1019155.548   1025455.844  -6742111.121
10 0 59365  66822.000000  0    -111793.887    918767.286  -6833032.234
10 0 59365  66942.000000  0     795360.504    780296.377  -6804814.399
10 0 59365  67062.000000  0    1686067.018    612585.205  -6657941.531
10 0 59365  67182.000000  0    2544412.028    418960.920  -6394938.736
10 0 59365  67302.000000  0    3355087.594    203472.959  -6020333.547
10 0 59365  67422.000000  0    4103661.272    -29186.944  -5540585.338
10 0 59365  67542.000000  0    4776831.844   -273780.817  -4963984.684
10 0 59365  67662.000000  0    5362670.410   -524634.491  -4300522.609
10 0 59365  67782.000000  0    5850839.746   -775760.631  -3561727.427
10 0 59365  67902.000000  0    6232786.903  -1020992.060  -2760473.051
10 0 59365  68022.000000  0    6501905.383  -1254123.117  -1910760.368
10 0 59365  68142.000000  0    6653662.286  -1469055.161  -1027474.093
10 0 59365  68262.000000  0    6685685.639  -1659942.774   -126119.892
10 0 59365  68382.000000  0    6597810.151  -1821337.281    777452.850
10 0 59365  68502.000000  0    6392078.452  -1948323.688   1667338.096
10 0 59365  68622.000000  0    6072697.425  -2036647.546   2527861.923
10 0 59365  68742.000000  0    5645950.989  -2082827.981   3343868.006
10 0 59365  68862.000000  0    5120070.384  -2084253.814   4100991.663
10 0 59365  68982.000000  0    4505067.107  -2039260.996   4785916.307
10 0 59365  69102.000000  0    3812534.588  -1947188.783   5386608.850
10 0 59365  69222.000000  0    3055420.763  -1808414.871   5892531.243
10 0 59365  69342.000000  0    2247776.969  -1624367.644   6294820.870
10 0 59365  69462.000000  0    1404491.619  -1397516.338   6586439.957
10 0 59365  69582.000000  0     541011.631  -1131339.136   6762293.104
10 0 59365  69702.000000  0    -326942.645   -830269.107   6819310.601
10 0 59365  69822.000000  0   -1183663.209   -499619.771   6756497.484
10 0 59365  69942.000000  0   -2013737.281   -145491.551   6574949.572
10 0 59365  70062.000000  0   -2802323.321    225340.304   6277835.743
10 0 59365  70182.000000  0   -3535416.566    605554.273   5870346.971
10 0 59365  70302.000000  0   -4200100.640    987425.268   5359611.704
10 0 59365  70422.000000  0   -4784780.583   1362979.458   4754577.136
10 0 59365  70542.000000  0   -5279392.477   1724159.186   4065857.849
10 0 59365  70662.000000  0   -5675584.934   2062993.725   3305552.720
10 0 59365  70782.000000  0   -5966868.243   2371772.473   2487034.031
10 0 59365  70902.000000  0   -6148728.911   2643216.759   1624711.567
10 0 59365  71022.000000  0   -6218706.294   2870646.390    733774.476
10 0 59365  71142.000000  0   -6176426.934   3048135.979   -170084.070
10 0 59365  71262.000000  0   -6023596.743   3170657.050  -1070951.739
10 0 59365  71382.000000  0   -5763951.357   3234201.926  -1952986.085
10 0 59365  71502.000000  0   -5403165.617   3235887.270  -2800702.163
10 0 59365  71622.000000  0   -4948723.605   3174033.285  -3599250.440
10 0 59365  71742.000000  0   -4409754.941   3048217.783  -4334679.298
10 0 59365  71862.000000  0   -3796841.749   2859304.014  -4994176.519
99
